{
  "type": "FeatureCollection",
  "features": [
    {
      "type": "Feature",
      "properties": {
        "norad_id": 31255,
        "name": "FENGYUN 1C DEB",
        "group": "fengyun-1c-debris",
        "lat": 67.78689805520982,
        "lon": 19.586418325442484,
        "alt_km": 1035.9485583669493,
        "timestamp": "2025-12-24T09:46:31.285474+00:00",
        "meta_object_name": "FENGYUN 1C DEB",
        "meta_object_id": "1999-025BMM",
        "meta_epoch": "2025-12-23T11:06:19.382976",
        "meta_mean_motion": 14.09743921,
        "meta_eccentricity": 0.02703562,
        "meta_inclination": 99.3085,
        "meta_ra_of_asc_node": 174.9282,
        "meta_arg_of_pericenter": 313.5957,
        "meta_mean_anomaly": 44.3057,
        "meta_ephemeris_type": 0,
        "meta_classification_type": "U",
        "meta_norad_cat_id": 31255,
        "meta_element_set_no": 999,
        "meta_rev_at_epoch": 96952,
        "meta_bstar": 0.00028400087,
        "meta_mean_motion_dot": 6.46e-06,
        "meta_mean_motion_ddot": 0,
        "tle_line1": "1 31255U 99025BMM 25357.46272434  .00000646  00000+0  28400-3 0  9997",
        "tle_line2": "2 31255  99.3085 174.9282 0270356 313.5957  44.3057 14.09743921969525"
      },
      "geometry": {
        "type": "Point",
        "coordinates": [
          19.586418325442484,
          67.78689805520982
        ]
      }
    },
    {
      "type": "Feature",
      "properties": {
        "norad_id": 31256,
        "name": "FENGYUN 1C DEB",
        "group": "fengyun-1c-debris",
        "lat": 66.90952655839236,
        "lon": -175.44097865824378,
        "alt_km": 656.4528973008073,
        "timestamp": "2025-12-24T09:46:31.285484+00:00",
        "meta_object_name": "FENGYUN 1C DEB",
        "meta_object_id": "1999-025BMN",
        "meta_epoch": "2025-12-24T00:54:27.449280",
        "meta_mean_motion": 14.03396693,
        "meta_eccentricity": 0.0308608,
        "meta_inclination": 98.6796,
        "meta_ra_of_asc_node": 205.201,
        "meta_arg_of_pericenter": 82.1757,
        "meta_mean_anomaly": 281.4323,
        "meta_ephemeris_type": 0,
        "meta_classification_type": "U",
        "meta_norad_cat_id": 31256,
        "meta_element_set_no": 999,
        "meta_rev_at_epoch": 65140,
        "meta_bstar": 0.0022866,
        "meta_mean_motion_dot": 5.419e-05,
        "meta_mean_motion_ddot": 0,
        "tle_line1": "1 31256U 99025BMN 25358.03781770  .00005419  00000+0  22866-2 0  9992",
        "tle_line2": "2 31256  98.6796 205.2010 0308608  82.1757 281.4323 14.03396693651402"
      },
      "geometry": {
        "type": "Point",
        "coordinates": [
          -175.44097865824378,
          66.90952655839236
        ]
      }
    },
    {
      "type": "Feature",
      "properties": {
        "norad_id": 31258,
        "name": "FENGYUN 1C DEB",
        "group": "fengyun-1c-debris",
        "lat": 11.245638784384774,
        "lon": -29.04591123076421,
        "alt_km": 522.4390849811552,
        "timestamp": "2025-12-24T09:46:31.285494+00:00",
        "meta_object_name": "FENGYUN 1C DEB",
        "meta_object_id": "1999-025BMQ",
        "meta_epoch": "2025-12-23T21:03:00.130176",
        "meta_mean_motion": 15.16254582,
        "meta_eccentricity": 0.0007976,
        "meta_inclination": 98.846,
        "meta_ra_of_asc_node": 148.5621,
        "meta_arg_of_pericenter": 313.0436,
        "meta_mean_anomaly": 202.879,
        "meta_ephemeris_type": 0,
        "meta_classification_type": "U",
        "meta_norad_cat_id": 31258,
        "meta_element_set_no": 999,
        "meta_rev_at_epoch": 97279,
        "meta_bstar": 0.0092188,
        "meta_mean_motion_dot": 0.0018282,
        "meta_mean_motion_ddot": 0,
        "tle_line1": "1 31258U 99025BMQ 25357.87708484  .00182820  00000+0  92188-2 0  9992",
        "tle_line2": "2 31258  98.8460 148.5621 0007976 313.0436 202.8790 15.16254582972793"
      },
      "geometry": {
        "type": "Point",
        "coordinates": [
          -29.04591123076421,
          11.245638784384774
        ]
      }
    },
    {
      "type": "Feature",
      "properties": {
        "norad_id": 31259,
        "name": "FENGYUN 1C DEB",
        "group": "fengyun-1c-debris",
        "lat": -41.39664767807836,
        "lon": -110.32159120309419,
        "alt_km": 823.0933917870261,
        "timestamp": "2025-12-24T09:46:31.285504+00:00",
        "meta_object_name": "FENGYUN 1C DEB",
        "meta_object_id": "1999-025BMR",
        "meta_epoch": "2025-12-24T03:47:00.972096",
        "meta_mean_motion": 14.15094057,
        "meta_eccentricity": 0.0065806,
        "meta_inclination": 99.0088,
        "meta_ra_of_asc_node": 77.4653,
        "meta_arg_of_pericenter": 164.647,
        "meta_mean_anomaly": 225.5253,
        "meta_ephemeris_type": 0,
        "meta_classification_type": "U",
        "meta_norad_cat_id": 31259,
        "meta_element_set_no": 999,
        "meta_rev_at_epoch": 95731,
        "meta_bstar": 0.0017462,
        "meta_mean_motion_dot": 3.413e-05,
        "meta_mean_motion_ddot": 0,
        "tle_line1": "1 31259U 99025BMR 25358.15765014  .00003413  00000+0  17462-2 0  9999",
        "tle_line2": "2 31259  99.0088  77.4653 0065806 164.6470 225.5253 14.15094057957316"
      },
      "geometry": {
        "type": "Point",
        "coordinates": [
          -110.32159120309419,
          -41.39664767807836
        ]
      }
    },
    {
      "type": "Feature",
      "properties": {
        "norad_id": 31260,
        "name": "FENGYUN 1C DEB",
        "group": "fengyun-1c-debris",
        "lat": 56.56824753710775,
        "lon": 89.6322647810449,
        "alt_km": 788.403801554332,
        "timestamp": "2025-12-24T09:46:31.285514+00:00",
        "meta_object_name": "FENGYUN 1C DEB",
        "meta_object_id": "1999-025BMS",
        "meta_epoch": "2025-12-21T22:59:04.280352",
        "meta_mean_motion": 14.36474992,
        "meta_eccentricity": 0.00465158,
        "meta_inclination": 98.9571,
        "meta_ra_of_asc_node": 253.2642,
        "meta_arg_of_pericenter": 265.2057,
        "meta_mean_anomaly": 156.8546,
        "meta_ephemeris_type": 0,
        "meta_classification_type": "U",
        "meta_norad_cat_id": 31260,
        "meta_element_set_no": 999,
        "meta_rev_at_epoch": 97326,
        "meta_bstar": 0.00091670653,
        "meta_mean_motion_dot": 2.675e-05,
        "meta_mean_motion_ddot": 0,
        "tle_line1": "1 31260U 99025BMS 25355.95768843  .00002675  00000+0  91671-3 0  9993",
        "tle_line2": "2 31260  98.9571 253.2642 0046515 265.2057 156.8546 14.36474992973266"
      },
      "geometry": {
        "type": "Point",
        "coordinates": [
          89.6322647810449,
          56.56824753710775
        ]
      }
    },
    {
      "type": "Feature",
      "properties": {
        "norad_id": 31261,
        "name": "FENGYUN 1C DEB",
        "group": "fengyun-1c-debris",
        "lat": -66.03141622631156,
        "lon": -26.64251820961413,
        "alt_km": 767.8004698582081,
        "timestamp": "2025-12-24T09:46:31.285524+00:00",
        "meta_object_name": "FENGYUN 1C DEB",
        "meta_object_id": "1999-025BMT",
        "meta_epoch": "2025-12-22T08:04:02.171136",
        "meta_mean_motion": 14.40135504,
        "meta_eccentricity": 0.00501263,
        "meta_inclination": 99.0174,
        "meta_ra_of_asc_node": 310.2494,
        "meta_arg_of_pericenter": 204.0168,
        "meta_mean_anomaly": 155.868,
        "meta_ephemeris_type": 0,
        "meta_classification_type": "U",
        "meta_norad_cat_id": 31261,
        "meta_element_set_no": 999,
        "meta_rev_at_epoch": 97488,
        "meta_bstar": 0.000846695,
        "meta_mean_motion_dot": 2.666e-05,
        "meta_mean_motion_ddot": 0,
        "tle_line1": "1 31261U 99025BMT 25356.33613624  .00002666  00000+0  84669-3 0  9992",
        "tle_line2": "2 31261  99.0174 310.2494 0050126 204.0168 155.8680 14.40135504974889"
      },
      "geometry": {
        "type": "Point",
        "coordinates": [
          -26.64251820961413,
          -66.03141622631156
        ]
      }
    },
    {
      "type": "Feature",
      "properties": {
        "norad_id": 31262,
        "name": "FENGYUN 1C DEB",
        "group": "fengyun-1c-debris",
        "lat": 65.93769734981193,
        "lon": -77.18019140530679,
        "alt_km": 797.8470386899689,
        "timestamp": "2025-12-24T09:46:31.285535+00:00",
        "meta_object_name": "FENGYUN 1C DEB",
        "meta_object_id": "1999-025BMU",
        "meta_epoch": "2025-12-23T04:36:31.658976",
        "meta_mean_motion": 14.18250623,
        "meta_eccentricity": 0.00545996,
        "meta_inclination": 99.0016,
        "meta_ra_of_asc_node": 80.7949,
        "meta_arg_of_pericenter": 68.7564,
        "meta_mean_anomaly": 321.7706,
        "meta_ephemeris_type": 0,
        "meta_classification_type": "U",
        "meta_norad_cat_id": 31262,
        "meta_element_set_no": 999,
        "meta_rev_at_epoch": 95857,
        "meta_bstar": 0.0016102319,
        "meta_mean_motion_dot": 3.318e-05,
        "meta_mean_motion_ddot": 0,
        "tle_line1": "1 31262U 99025BMU 25357.19203309  .00003318  00000+0  16102-2 0  9994",
        "tle_line2": "2 31262  99.0016  80.7949 0054599  68.7564 321.7706 14.18250623958578"
      },
      "geometry": {
        "type": "Point",
        "coordinates": [
          -77.18019140530679,
          65.93769734981193
        ]
      }
    }
  ]
}